{"type": "FeatureCollection", "features": [ {"type": "Feature", "properties": {"norad_id": 34572, "name": "COSMOS 2251 DEB", "group": "cosmos-2251-debris", "lat": 69.74124708848362, "lon": 139.85359511256024, "alt_km": 711.6952321951867, "timestamp": "2025-12-26T21:25:53.404117+00:00", "meta": {"OBJECT_NAME": "COSMOS 2251 DEB", "OBJECT_ID": "1993-036VJ", "EPOCH": "2025-12-24T06:18:12.267936", "MEAN_MOTION": 14.50228885, "ECCENTRICITY": 0.00614008, "INCLINATION": 74.0107, "RA_OF_ASC_NODE": 93.8275, "ARG_OF_PERICENTER": 165.5586, "MEAN_ANOMALY": 225.3704, "EPHEMERIS_TYPE": 0, "CLASSIFICATION_TYPE": "U", "NORAD_CAT_ID": 34572, "ELEMENT_SET_NO": 999, "REV_AT_EPOCH": 87545, "BSTAR": 0.0025670587, "MEAN_MOTION_DOT": 0.00010221, "MEAN_MOTION_DDOT": 0}, "tle": {"line1": "1 34572U 93036VJ  25358.26264199  .00010221  00000+0  25671-2 0  9992", "line2": "2 34572  74.0107  93.8275 0061400 165.5586 225.3704 14.50228885875458"}}, "geometry": {"type": "Point", "coordinates": [139.85359511256024, 69.74124708848362]}}, {"type": "Feature", "properties": {"norad_id": 34574, "name": "COSMOS 2251 DEB", "group": "cosmos-2251-debris", "lat": -64.94570537851429, "lon": -21.948681626763502, "alt_km": 675.5923754059077, "timestamp": "2025-12-26T21:25:53.404126+00:00", "meta": {"OBJECT_NAME": "COSMOS 2251 DEB", "OBJECT_ID": "1993-036VL", "EPOCH": "2025-12-26T10:52:26.399712", "MEAN_MOTION": 14.70754165, "ECCENTRICITY": 0.00673044, "INCLINATION": 74.0693, "RA_OF_ASC_NODE": 16.5663, "ARG_OF_PERICENTER": 33.2601, "MEAN_ANOMALY": 88.9644, "EPHEMERIS_TYPE": 0, "CLASSIFICATION_TYPE": "U", "NORAD_CAT_ID": 34574, "ELEMENT_SET_NO": 999, "REV_AT_EPOCH": 88980, "BSTAR": 0.0010262175, "MEAN_MOTION_DOT": 6.458e-05, "MEAN_MOTION_DDOT": 0}, "tle": {"line1": "1 34574U 93036VL  25360.45308333  .00006458  00000+0  10262-2 0  9994", "line2": "2 34574  74.0693  16.5663 0067304  33.2601  88.9644 14.70754165889808"}}, "geometry": {"type": "Point", "coordinates": [-21.948681626763502, -64.94570537851429]}}, {"type": "Feature", "properties": {"norad_id": 34576, "name": "COSMOS 2251 DEB", "group": "cosmos-2251-debris", "lat": -25.01447852176454, "lon": -60.940594320360006, "alt_km": 708.6832030996593, "timestamp": "2025-12-26T21:25:53.404136+00:00", "meta": {"OBJECT_NAME": "COSMOS 2251 DEB", "OBJECT_ID": "1993-036VN", "EPOCH": "2025-12-26T13:57:01.448064", "MEAN_MOTION": 14.55523592, "ECCENTRICITY": 0.00082814, "INCLINATION": 74.034, "RA_OF_ASC_NODE": 111.9728, "ARG_OF_PERICENTER": 250.7491, "MEAN_ANOMALY": 122.631, "EPHEMERIS_TYPE": 0, "CLASSIFICATION_TYPE": "U", "NORAD_CAT_ID": 34576, "ELEMENT_SET_NO": 999, "REV_AT_EPOCH": 88668, "BSTAR": 0.00095142236, "MEAN_MOTION_DOT": 4.119e-05, "MEAN_MOTION_DDOT": 0}, "tle": {"line1": "1 34576U 93036VN  25360.58126676  .00004119  00000+0  95142-3 0  9991", "line2": "2 34576  74.0340 111.9728 0008281 250.7491 122.6310 14.55523592886683"}}, "geometry": {"type": "Point", "coordinates": [-60.940594320360006, -25.01447852176454]}}, {"type": "Feature", "properties": {"norad_id": 34579, "name": "COSMOS 2251 DEB", "group": "cosmos-2251-debris", "lat": -73.87600405263048, "lon": 99.11272619963005, "alt_km": 728.3254605243583, "timestamp": "2025-12-26T21:25:53.404146+00:00", "meta": {"OBJECT_NAME": "COSMOS 2251 DEB", "OBJECT_ID": "1993-036VR", "EPOCH": "2025-12-25T23:10:11.209728", "MEAN_MOTION": 14.45342439, "ECCENTRICITY": 0.0027488, "INCLINATION": 74.0512, "RA_OF_ASC_NODE": 199.27, "ARG_OF_PERICENTER": 265.93, "MEAN_ANOMALY": 217.2957, "EPHEMERIS_TYPE": 0, "CLASSIFICATION_TYPE": "U", "NORAD_CAT_ID": 34579, "ELEMENT_SET_NO": 999, "REV_AT_EPOCH": 88365, "BSTAR": 0.0003564, "MEAN_MOTION_DOT": 1.231e-05, "MEAN_MOTION_DDOT": 0}, "tle": {"line1": "1 34579U 93036VR  25359.96540752  .00001231  00000+0  35640-3 0  9998", "line2": "2 34579  74.0512 199.2700 0027488 265.9300 217.2957 14.45342439883653"}}, "geometry": {"type": "Point", "coordinates": [99.11272619963005, -73.87600405263048]}}, {"type": "Feature", "properties": {"norad_id": 34582, "name": "COSMOS 2251 DEB", "group": "cosmos-2251-debris", "lat": 67.3202475509281, "lon": 22.760973471834237, "alt_km": 753.8770926214638, "timestamp": "2025-12-26T21:25:53.404156+00:00", "meta": {"OBJECT_NAME": "COSMOS 2251 DEB", "OBJECT_ID": "1993-036VU", "EPOCH": "2025-12-26T02:38:43.695744", "MEAN_MOTION": 14.43389109, "ECCENTRICITY": 0.0048557, "INCLINATION": 74.0188, "RA_OF_ASC_NODE": 247.512, "ARG_OF_PERICENTER": 354.7384, "MEAN_ANOMALY": 5.3255, "EPHEMERIS_TYPE": 0, "CLASSIFICATION_TYPE": "U", "NORAD_CAT_ID": 34582, "ELEMENT_SET_NO": 999, "REV_AT_EPOCH": 88140, "BSTAR": 0.00063170726, "MEAN_MOTION_DOT": 2.136e-05, "MEAN_MOTION_DDOT": 0}, "tle": {"line1": "1 34582U 93036VU  25360.11022796  .00002136  00000+0  63171-3 0  9999", "line2": "2 34582  74.0188 247.5120 0048557 354.7384   5.3255 14.43389109881409"}}, "geometry": {"type": "Point", "coordinates": [22.760973471834237, 67.3202475509281]}}, {"type": "Feature", "properties": {"norad_id": 34588, "name": "COSMOS 2251 DEB", "group": "cosmos-2251-debris", "lat": 73.64867628307887, "lon": -15.196996978910057, "alt_km": 757.2632401221535, "timestamp": "2025-12-26T21:25:53.404167+00:00", "meta": {"OBJECT_NAME": "COSMOS 2251 DEB", "OBJECT_ID": "1993-036WA", "EPOCH": "2025-12-26T03:23:28.542048", "MEAN_MOTION": 14.42058675, "ECCENTRICITY": 0.00193043, "INCLINATION": 74.0423, "RA_OF_ASC_NODE": 243.4223, "ARG_OF_PERICENTER": 294.754, "MEAN_ANOMALY": 218.0475, "EPHEMERIS_TYPE": 0, "CLASSIFICATION_TYPE": "U", "NORAD_CAT_ID": 34588, "ELEMENT_SET_NO": 999, "REV_AT_EPOCH": 88143, "BSTAR": 0.00038207072, "MEAN_MOTION_DOT": 1.231e-05, "MEAN_MOTION_DDOT": 0}, "tle": {"line1": "1 34588U 93036WA  25360.14130257  .00001231  00000+0  38207-3 0  9997", "line2": "2 34588  74.0423 243.4223 0019304 294.7540 218.0475 14.42058675881431"}}, "geometry": {"type": "Point", "coordinates": [-15.196996978910057, 73.64867628307887]}}, {"type": "Feature", "properties": {"norad_id": 34589, "name": "COSMOS 2251 DEB", "group": "cosmos-2251-debris", "lat": -31.526228983603318, "lon": 21.727017650057476, "alt_km": 763.9218896020084, "timestamp": "2025-12-26T21:25:53.404177+00:00", "meta": {"OBJECT_NAME": "COSMOS 2251 DEB", "OBJECT_ID": "1993-036WB", "EPOCH": "2025-12-26T09:31:57.434592", "MEAN_MOTION": 13.86070784, "ECCENTRICITY": 0.02525426, "INCLINATION": 73.925, "RA_OF_ASC_NODE": 32.7594, "ARG_OF_PERICENTER": 333.3886, "MEAN_ANOMALY": 41.0436, "EPHEMERIS_TYPE": 0, "CLASSIFICATION_TYPE": "U", "NORAD_CAT_ID": 34589, "ELEMENT_SET_NO": 999, "REV_AT_EPOCH": 84901, "BSTAR": 0.00051768278, "MEAN_MOTION_DOT": 7.41e-06, "MEAN_MOTION_DDOT": 0}, "tle": {"line1": "1 34589U 93036WB  25360.39719253  .00000741  00000+0  51768-3 0  9996", "line2": "2 34589  73.9250  32.7594 0252542 333.3886  41.0436 13.86070784849015"}}, "geometry": {"type": "Point", "coordinates": [21.727017650057476, -31.526228983603318]}}, {"type": "Feature", "properties": {"norad_id": 34590, "name": "COSMOS 2251 DEB", "group": "cosmos-2251-debris", "lat": -31.622812279758065, "lon": 125.9241193719583, "alt_km": 757.9918268624015, "timestamp": "2025-12-26T21:25:53.404187+00:00", "meta": {"OBJECT_NAME": "COSMOS 2251 DEB", "OBJECT_ID": "1993-036WC", "EPOCH": "2025-12-25T21:36:51.910848", "MEAN_MOTION": 14.5484121, "ECCENTRICITY": 0.0068093, "INCLINATION": 74.0446, "RA_OF_ASC_NODE": 297.6543, "ARG_OF_PERICENTER": 63.4192, "MEAN_ANOMALY": 353.7708, "EPHEMERIS_TYPE": 0, "CLASSIFICATION_TYPE": "U", "NORAD_CAT_ID": 34590, "ELEMENT_SET_NO": 999, "REV_AT_EPOCH": 89312, "BSTAR": 0.00014464, "MEAN_MOTION_DOT": 6.1e-06, "MEAN_MOTION_DDOT": 0}, "tle": {"line1": "1 34590U 93036WC  25359.90060082  .00000610  00000+0  14464-3 0  9999", "line2": "2 34590  74.0446 297.6543 0068093  63.4192 353.7708 14.54841210893121"}}, "geometry": {"type": "Point", "coordinates": [125.9241193719583, -31.622812279758065]}}, {"type": "Feature", "properties": {"norad_id": 34609, "name": "COSMOS 2251 DEB", "group": "cosmos-2251-debris", "lat": 69.67246393756434, "lon": -151.15862746921175, "alt_km": 912.8310786434813, "timestamp": "2025-12-26T21:25:53.404198+00:00", "meta": {"OBJECT_NAME": "COSMOS 2251 DEB", "OBJECT_ID": "1993-036WE", "EPOCH": "2025-12-24T00:34:30.192384", "MEAN_MOTION": 14.2183063, "ECCENTRICITY": 0.01457677, "INCLINATION": 73.7329, "RA_OF_ASC_NODE": 86.098, "ARG_OF_PERICENTER": 303.8546, "MEAN_ANOMALY": 238.3232, "EPHEMERIS_TYPE": 0, "CLASSIFICATION_TYPE": "U", "NORAD_CAT_ID": 34609, "ELEMENT_SET_NO": 999, "REV_AT_EPOCH": 86792, "BSTAR": 0.00072342659, "MEAN_MOTION_DOT": 1.747e-05, "MEAN_MOTION_DDOT": 0}, "tle": {"line1": "1 34609U 93036WE  25358.02396056  .00001747  00000+0  72343-3 0  9997", "line2": "2 34609  73.7329  86.0980 0145767 303.8546 238.3232 14.21830630867928"}}, "geometry": {"type": "Point", "coordinates": [-151.15862746921175, 69.67246393756434]}}, {"type": "Feature", "properties": {"norad_id": 34610, "name": "COSMOS 2251 DEB", "group": "cosmos-2251-debris", "lat": -52.99343248882525, "lon": 79.84526359702083, "alt_km": 956.4039391225679, "timestamp": "2025-12-26T21:25:53.404208+00:00", "meta": {"OBJECT_NAME": "COSMOS 2251 DEB", "OBJECT_ID": "1993-036WF", "EPOCH": "2025-12-25T23:49:53.205024", "MEAN_MOTION": 14.07144269, "ECCENTRICITY": 0.01809429, "INCLINATION": 74.0186, "RA_OF_ASC_NODE": 239.0767, "ARG_OF_PERICENTER": 6.6475, "MEAN_ANOMALY": 353.6998, "EPHEMERIS_TYPE": 0, "CLASSIFICATION_TYPE": "U", "NORAD_CAT_ID": 34610, "ELEMENT_SET_NO": 999, "REV_AT_EPOCH": 85746, "BSTAR": 0.0019166478, "MEAN_MOTION_DOT": 3.701e-05, "MEAN_MOTION_DDOT": 0}, "tle": {"line1": "1 34610U 93036WF  25359.99297691  .00003701  00000+0  19166-2 0  9996", "line2": "2 34610  74.0186 239.0767 0180942   6.6475 353.6998 14.07144269857469"}}, "geometry": {"type": "Point", "coordinates": [79.84526359702083, -52.99343248882525]}}]}